STARLINK-30884
1 58372U 23177X   26061.16668981  .01951763  00000+0  12248+0 0  9992
2 58372  43.0009  32.3822 0002315 294.2854 116.7402 15.05375363  5822
